[{"OBJECT_NAME":"STARLINK-31256","OBJECT_ID":"2024-044K","EPOCH":"2026-03-09T18:49:54.317280","MEAN_MOTION":15.27568251,"ECCENTRICITY":0.00010304,"INCLINATION":43,"RA_OF_ASC_NODE":106.1864,"ARG_OF_PERICENTER":276.2359,"MEAN_ANOMALY":83.8375,"EPHEMERIS_TYPE":0,"CLASSIFICATION_TYPE":"U","NORAD_CAT_ID":59161,"ELEMENT_SET_NO":999,"REV_AT_EPOCH":11361,"BSTAR":2.1629463e-5,"MEAN_MOTION_DOT":3.33e-6,"MEAN_MOTION_DDOT":0},{"OBJECT_NAME":"TEVEL2-3","OBJECT_ID":"2025-052J","EPOCH":"2026-03-09T15:29:22.754400","MEAN_MOTION":15.30377031,"ECCENTRICITY":0.0004761,"INCLINATION":97.3994,"RA_OF_ASC_NODE":324.7775,"ARG_OF_PERICENTER":105.7353,"MEAN_ANOMALY":254.4413,"EPHEMERIS_TYPE":0,"CLASSIFICATION_TYPE":"U","NORAD_CAT_ID":63218,"ELEMENT_SET_NO":999,"REV_AT_EPOCH":5485,"BSTAR":0.00069446,"MEAN_MOTION_DOT":0.00020365,"MEAN_MOTION_DDOT":0}]
